$$SOE
2459580.500000000, A.D. 2022-Jan-01 00:00:00.0000, 8.204234734207200E+07, -4.847157064047346E+08, -5.174555620122465E+07,
2459587.500000000, A.D. 2022-Jan-08 00:00:00.0000, 9.152546623678270E+07, -4.847850337728610E+08, -4.965819377608672E+07,
2459594.500000000, A.D. 2022-Jan-15 00:00:00.0000, 1.009721783151784E+08, -4.846612726004725E+08, -4.755104852707970E+07,
2459601.500000000, A.D. 2022-Jan-22 00:00:00.0000, 1.103790900675386E+08, -4.843462170000431E+08, -4.542513143964931E+07,
2459608.500000000, A.D. 2022-Jan-29 00:00:00.0000, 1.197428839806691E+08, -4.838416967160134E+08, -4.328144221680015E+07,
2459615.500000000, A.D. 2022-Feb-05 00:00:00.0000, 1.290603151887170E+08, -4.831495754493762E+08, -4.112096904479200E+07,
2459622.500000000, A.D. 2022-Feb-12 00:00:00.0000, 1.383282102694873E+08, -4.822717503567557E+08, -3.894468866544825E+07,
2459629.500000000, A.D. 2022-Feb-19 00:00:00.0000, 1.475434668664460E+08, -4.812101503527765E+08, -3.675356643874574E+07,
2459636.500000000, A.D. 2022-Feb-26 00:00:00.0000, 1.567030528292836E+08, -4.799667339362320E+08, -3.454855633332264E+07,
2459643.500000000, A.D. 2022-Mar-05 00:00:00.0000, 1.658040050361734E+08, -4.785434871540592E+08, -3.233060090885112E+07,
2459650.500000000, A.D. 2022-Mar-12 00:00:00.0000, 1.748434281231229E+08, -4.769424217657670E+08, -3.010063131501022E+07,
2459657.500000000, A.D. 2022-Mar-19 00:00:00.0000, 1.838184931947708E+08, -4.751655735770168E+08, -2.785956731038260E+07,
2459664.500000000, A.D. 2022-Mar-26 00:00:00.0000, 1.927264365421844E+08, -4.732150009448542E+08, -2.560831730298060E+07,
2459671.500000000, A.D. 2022-Apr-02 00:00:00.0000, 2.015645584386561E+08, -4.710927835070616E+08, -2.334777842241296E+07,
2459678.500000000, A.D. 2022-Apr-09 00:00:00.0000, 2.103302222887417E+08, -4.688010211279438E+08, -2.107883664749157E+07,
2459685.500000000, A.D. 2022-Apr-16 00:00:00.0000, 2.190208544904212E+08, -4.663418324042552E+08, -1.880236696777606E+07,
2459692.500000000, A.D. 2022-Apr-23 00:00:00.0000, 2.276339437433266E+08, -4.637173516448540E+08, -1.651923337317163E+07,
2459699.500000000, A.D. 2022-Apr-30 00:00:00.0000, 2.361670379337581E+08, -4.609297265661114E+08, -1.423028868261695E+07,
2459706.500000000, A.D. 2022-May-07 00:00:00.0000, 2.446177416601813E+08, -4.579811186723023E+08, -1.193637465327308E+07,
2459713.500000000, A.D. 2022-May-14 00:00:00.0000, 2.529837157902836E+08, -4.548737032788718E+08, -9.638322248677641E+06,
2459720.500000000, A.D. 2022-May-21 00:00:00.0000, 2.612626770204179E+08, -4.516096684165545E+08, -7.336951816916436E+06,
2459727.500000000, A.D. 2022-May-28 00:00:00.0000, 2.694523969607061E+08, -4.481912135720844E+08, -5.033073212672114E+06,
2459734.500000000, A.D. 2022-Jun-04 00:00:00.0000, 2.775507010251377E+08, -4.446205485759223E+08, -2.727485913573444E+06,
2459741.500000000, A.D. 2022-Jun-11 00:00:00.0000, 2.855554672732497E+08, -4.408998926330955E+08, -4.209791433261037E+05,
2459748.500000000, A.D. 2022-Jun-18 00:00:00.0000, 2.934646252432879E+08, -4.370314734822995E+08, 1.885667996578693E+06,
2459755.500000000, A.D. 2022-Jun-25 00:00:00.0000, 3.012761548068814E+08, -4.330175267144677E+08, 4.191686381842166E+06,
2459762.500000000, A.D. 2022-Jul-02 00:00:00.0000, 3.089880851797189E+08, -4.288602953140923E+08, 6.496316690003037E+06,
2459769.500000000, A.D. 2022-Jul-09 00:00:00.0000, 3.165984944791823E+08, -4.245620292438860E+08, 8.798809174071997E+06,
2459776.500000000, A.D. 2022-Jul-16 00:00:00.0000, 3.241055097744675E+08, -4.201249839880997E+08, 1.109842347941843E+07,
2459783.500000000, A.D. 2022-Jul-23 00:00:00.0000, 3.315073054308565E+08, -4.155514179750980E+08, 1.339442871260729E+07,
2459790.500000000, A.D. 2022-Jul-30 00:00:00.0000, 3.388020998316081E+08, -4.108435922304826E+08, 1.568610348092464E+07,
2459797.500000000, A.D. 2022-Aug-06 00:00:00.0000, 3.459881540761538E+08, -4.060037716094478E+08, 1.797273562588812E+07,
2459804.500000000, A.D. 2022-Aug-13 00:00:00.0000, 3.530637718321298E+08, -4.010342248515556E+08, 2.025362195185848E+07,
2459811.500000000, A.D. 2022-Aug-20 00:00:00.0000, 3.600272987725702E+08, -3.959372239595640E+08, 2.252806805310465E+07,
2459818.500000000, A.D. 2022-Aug-27 00:00:00.0000, 3.668771216669152E+08, -3.907150436271849E+08, 2.479538817419609E+07,
2459825.500000000, A.D. 2022-Sep-03 00:00:00.0000, 3.736116673742356E+08, -3.853699608247744E+08, 2.705490507238938E+07,
2459832.500000000, A.D. 2022-Sep-10 00:00:00.0000, 3.802294018291471E+08, -3.799042545177184E+08, 2.930594987609382E+07,
2459839.500000000, A.D. 2022-Sep-17 00:00:00.0000, 3.867288290499641E+08, -3.743202055180400E+08, 3.154786193686636E+07,
2459846.500000000, A.D. 2022-Sep-24 00:00:00.0000, 3.931084902294006E+08, -3.686200965187825E+08, 3.377998866539276E+07,
2459853.500000000, A.D. 2022-Oct-01 00:00:00.0000, 3.993669631476909E+08, -3.628062123319098E+08, 3.600168532764834E+07,
2459860.500000000, A.D. 2022-Oct-08 00:00:00.0000, 4.055028623157402E+08, -3.568808398062238E+08, 3.821231480657516E+07,
2459867.500000000, A.D. 2022-Oct-15 00:00:00.0000, 4.115148389170175E+08, -3.508462662253783E+08, 4.041124751286110E+07,
2459874.500000000, A.D. 2022-Oct-22 00:00:00.0000, 4.174015783664286E+08, -3.447047778694270E+08, 4.259786150733155E+07,
2459881.500000000, A.D. 2022-Oct-29 00:00:00.0000, 4.231617979830521E+08, -3.384586613319644E+08, 4.477154239361198E+07,
2459888.500000000, A.D. 2022-Nov-05 00:00:00.0000, 4.287942468757477E+08, -3.321102048498828E+08, 4.693168301223822E+07,
2459895.500000000, A.D. 2022-Nov-12 00:00:00.0000, 4.342977060771352E+08, -3.256616983773485E+08, 4.907768321993308E+07,
2459902.500000000, A.D. 2022-Nov-19 00:00:00.0000, 4.396709882067669E+08, -3.191154333572819E+08, 5.120894974206871E+07,
2459909.500000000, A.D. 2022-Nov-26 00:00:00.0000, 4.449129369257601E+08, -3.124737025868127E+08, 5.332489604181534E+07,
2459916.500000000, A.D. 2022-Dec-03 00:00:00.0000, 4.500224263489497E+08, -3.057388001874282E+08, 5.542494218988088E+07,
2459923.500000000, A.D. 2022-Dec-10 00:00:00.0000, 4.549983604600899E+08, -2.989130216604365E+08, 5.750851473232528E+07,
2459930.500000000, A.D. 2022-Dec-17 00:00:00.0000, 4.598396725546367E+08, -2.919986640521724E+08, 5.957504655228475E+07,
2459937.500000000, A.D. 2022-Dec-24 00:00:00.0000, 4.645453248189654E+08, -2.849980262941540E+08, 6.162397671026643E+07,
2459944.500000000, A.D. 2022-Dec-31 00:00:00.0000, 4.691143084029212E+08, -2.779134096097224E+08, 6.365475023897766E+07,
2459951.500000000, A.D. 2023-Jan-07 00:00:00.0000, 4.735456441080247E+08, -2.707471170236664E+08, 6.566681796012239E+07,
2459958.500000000, A.D. 2023-Jan-14 00:00:00.0000, 4.778383817242972E+08, -2.635014514773749E+08, 6.765963654436827E+07,
2459965.500000000, A.D. 2023-Jan-21 00:00:00.0000, 4.819915973703710E+08, -2.561787157215821E+08, 6.963266861433440E+07,
2459972.500000000, A.D. 2023-Jan-28 00:00:00.0000, 4.860043925040357E+08, -2.487812141806743E+08, 7.158538253792693E+07,
2459979.500000000, A.D. 2023-Feb-04 00:00:00.0000, 4.898758943949944E+08, -2.413112537593020E+08, 7.351725217864767E+07,
2459986.500000000, A.D. 2023-Feb-11 00:00:00.0000, 4.936052562655939E+08, -2.337711437842667E+08, 7.542775675214934E+07,
2459993.500000000, A.D. 2023-Feb-18 00:00:00.0000, 4.971916570369912E+08, -2.261631959047045E+08, 7.731638072803821E+07,
2460000.500000000, A.D. 2023-Feb-25 00:00:00.0000, 5.006343009438710E+08, -2.184897241121863E+08, 7.918261373999506E+07,
2460007.500000000, A.D. 2023-Mar-04 00:00:00.0000, 5.039324171199673E+08, -2.107530448615971E+08, 8.102595049669024E+07,
2460014.500000000, A.D. 2023-Mar-11 00:00:00.0000, 5.070852591829555E+08, -2.029554772918071E+08, 8.284589069117239E+07,
2460021.500000000, A.D. 2023-Mar-18 00:00:00.0000, 5.100921048656051E+08, -1.950993435950388E+08, 8.464193890057613E+07,
2460028.500000000, A.D. 2023-Mar-25 00:00:00.0000, 5.129522558961430E+08, -1.871869695813995E+08, 8.641360445374759E+07,
2460035.500000000, A.D. 2023-Apr-01 00:00:00.0000, 5.156650385519857E+08, -1.792206850440700E+08, 8.816040126004568E+07,
2460042.500000000, A.D. 2023-Apr-08 00:00:00.0000, 5.182298042717961E+08, -1.712028226989765E+08, 8.988184775616463E+07,
2460049.500000000, A.D. 2023-Apr-15 00:00:00.0000, 5.206459279897729E+08, -1.631357168048009E+08, 9.157746709550276E+07,
2460056.500000000, A.D. 2023-Apr-22 00:00:00.0000, 5.229128060012907E+08, -1.550217045154002E+08, 9.324678716488466E+07,
2460063.500000000, A.D. 2023-Apr-29 00:00:00.0000, 5.250298560941692E+08, -1.468631277110440E+08, 9.488934036164665E+07,
2460070.500000000, A.D. 2023-May-06 00:00:00.0000, 5.269965181853079E+08, -1.386623335263885E+08, 9.650466343804717E+07,
2460077.500000000, A.D. 2023-May-13 00:00:00.0000, 5.288122544862223E+08, -1.304216744681639E+08, 9.809229742961252E+07,
2460084.500000000, A.D. 2023-May-20 00:00:00.0000, 5.304765494318355E+08, -1.221435086132414E+08, 9.965178760574618E+07,
2460091.500000000, A.D. 2023-May-27 00:00:00.0000, 5.319889095661487E+08, -1.138301999160777E+08, 1.011826834223043E+08,
2460098.500000000, A.D. 2023-Jun-03 00:00:00.0000, 5.333488634425247E+08, -1.054841185991211E+08, 1.026845384728064E+08,
2460105.500000000, A.D. 2023-Jun-10 00:00:00.0000, 5.345559615625480E+08, -9.710764163956445E+07, 1.041569104348024E+08,
2460112.500000000, A.D. 2023-Jun-17 00:00:00.0000, 5.356097764426111E+08, -8.870315341226959E+07, 1.055993609981208E+08,
2460119.500000000, A.D. 2023-Jun-24 00:00:00.0000, 5.365099031280450E+08, -8.027304643293582E+07, 1.070114557498813E+08,
2460126.500000000, A.D. 2023-Jul-01 00:00:00.0000, 5.372559604076203E+08, -7.181972137265149E+07, 1.083927640603787E+08,
2460133.500000000, A.D. 2023-Jul-08 00:00:00.0000, 5.378475910549546E+08, -6.334558552072930E+07, 1.097428591906498E+08,
2460140.500000000, A.D. 2023-Jul-15 00:00:00.0000, 5.382844598212907E+08, -5.485305252547240E+07, 1.110613185080175E+08,
2460147.500000000, A.D. 2023-Jul-22 00:00:00.0000, 5.385662527011198E+08, -4.634454444749105E+07, 1.123477234020458E+08,
$$EOE